#aV2019 11 19  0  0  0.00000000     288 DD+AD WGS84 FIT  NGA
## 2080 172800.00000000   300.00000000 58806 0.0000000000000
+   32     1  2  3  4  5  6  7  8  9 10 11 12 13 14 15 16 17
+         18 19 20 21 22 23 24 25 26 27 28 29 30 31 32  0  0
+          0  0  0  0  0  0  0  0  0  0  0  0  0  0  0  0  0
+          0  0  0  0  0  0  0  0  0  0  0  0  0  0  0  0  0
+          0  0  0  0  0  0  0  0  0  0  0  0  0  0  0  0  0
++         2  2  2  2  2  2  2  2  2  2  2  2  2  2  2  2  2
++         2  2  2  2  2  2  2  2  2  2  2  2  2  2  2  0  0
++         0  0  0  0  0  0  0  0  0  0  0  0  0  0  0  0  0
++         0  0  0  0  0  0  0  0  0  0  0  0  0  0  0  0  0
++         0  0  0  0  0  0  0  0  0  0  0  0  0  0  0  0  0
%c cc cc ccc ccc cccc cccc cccc cccc ccccc ccccc ccccc ccccc
%c cc cc ccc ccc cccc cccc cccc cccc ccccc ccccc ccccc ccccc
%f  0.0000000  0.000000000  0.00000000000  0.000000000000000
%f  0.0000000  0.000000000  0.00000000000  0.000000000000000
%i    0    0    0    0      0      0      0      0         0
%i    0    0    0    0      0      0      0      0         0
/*      NGA, ST. LOUIS,MO.                                  
/*   EPHEMERIS COMPUTED FROM 2 DAYS OF DATA                 
/*   EPOCHA v5 SMOOTHER                                     
/*   G1762 IERS2010 SATAF SATAPC                            
*  2019 11 19  3 15  0.00000000
P  1  11380.046964 -20655.320221 -12095.898862   -201.995741                    
V  1  12789.874030  -8347.987266  27044.384902     -0.126361                    
P  2 -21211.726700  13406.392662  -7885.881878   -349.612827                    
V  2   5598.525911  -9817.997353 -29551.214402     -0.076510                    
P  3   1146.690357 -15469.416252 -21628.514432    -38.884905                    
V  3  25967.867075   8433.820070  -4581.466765     -0.059322                    
P  4  -6511.919180 -25537.653333   3161.619270    -10.585493                    
V  4   2147.715668  -4388.369360 -31401.115708     -0.041658                    
P  5 -20791.654631   5302.632552  15639.542561     -3.628527                    
V  5 -18566.773177  -7870.993484 -21629.673193     -0.004643                    
P  6 -19163.994557    409.010809 -18350.848543   -128.063999                    
V  6  16675.821820 -16383.922794 -17707.538994     -0.118489                    
P  7  -4565.875625 -15748.570487  21088.678220   -151.826130                    
V  7  20564.344713 -16342.828542  -8330.920251     -0.081629                    
P  8   7316.325302 -19478.844857  16411.828897    -13.851229                    
V  8   6131.562654  19998.585069  21261.386847     -0.012901                    
P  9  -7220.103822 -25436.944034   2397.039332    -86.968593                    
V  9   2356.939307  -3691.280452 -31379.006914     -0.096840                    
P 10  23507.668770  11590.576817   5055.351561   -140.047457                    
V 10  -6750.905924    326.123882  30816.481395     -0.147349                    
P 11   7036.523204 -25509.217778  -4261.626772   -444.003668                    
V 11   5492.964282  -2914.484506  29803.316458      0.111259                    
P 12  -7338.986228  13025.590128 -22162.992379    182.054465                    
V 12 -25360.259513 -10805.828240   2230.535020     -0.039491                    
P 13 -13014.006714  11346.774646  20040.109057    -31.966010                    
V 13  -2933.632112 -25571.862954  12569.045810      0.023335                    
P 14  15296.194252   3291.874388 -21161.972219    -49.695179                    
V 14   2751.043944  27476.657455   5988.709188      0.021821                    
P 15  -5537.511635  20700.414311  15145.452038   -271.658717                    
V 15  -8737.319205 -18257.365218  21730.876320      0.026823                    
P 16  22159.011569  -1039.443368  14737.564261    -94.555436                    
V 16  16686.155167   8852.676460 -23722.078472     -0.037567                    
P 17 -13526.438892 -14839.464829 -17000.571164    165.543627                    
V 17  -1775.064751 -22308.596287  20307.556964      0.069540                    
P 18  16460.744249 -20408.581477  -4402.522088    101.105822                    
V 18   5608.409179  -1392.704926  31070.798270      0.025420                    
P 19 -14853.796843  -7063.851339 -21144.286878   -237.843445                    
V 19  -1866.739198 -26057.071734  10175.816548      0.052068                    
P 20  17335.169123  14278.963547  14224.063453    527.492216                    
V 20 -18404.770954   -987.210469  23060.610885      0.000797                    
P 21   8415.207311  13718.579898  21942.582293    -83.896720                    
V 21 -18630.783986  18181.286494  -4177.852481      0.059333                    
P 22   9583.580316 -13447.828186 -20569.934738   -772.578714                    
V 22  25711.673860   7472.938811   7120.153250     -0.024899                    
P 23   -513.884797 -25342.456760  -6891.867904   -154.692999                    
V 23   5518.416647   8321.483232 -29919.668378      0.022671                    
P 24 -11986.692002  21569.781380  -9510.942830     -5.082348                    
V 24 -10943.680821   5967.384670  28189.463853     -0.004916                    
P 25   9035.276051  16773.183063 -18828.817583    -17.237185                    
V 25 -22471.462934  -6448.812680 -16463.844626     -0.002839                    
P 26  25782.959104   3537.128480   5803.662840     87.334515                    
V 26   6189.763442   4933.778050 -30212.873512      0.083485                    
P 27  13194.837048  -7834.763414  21523.975424   -124.301999                    
V 27   6027.547364  26935.339992   6377.833978     -0.118764                    
P 28 -22448.964272 -13447.852579   4739.521013    754.475203                    
V 28   5701.905444    128.353547  31507.110253     -0.017068                    
P 29   4357.749283  26147.955166   1401.776281     40.545709                    
V 29  -1786.764659   2062.480819 -32251.021124     -0.100665                    
P 30 -14709.368978  -7637.548467  20820.265752    -87.005352                    
V 30  20011.077200 -17244.072115   7628.914773     -0.084474                    
P 31  20809.128911  -2102.225943 -16654.976320     -4.142086                    
V 31 -15099.137552  14586.827349 -20279.162387     -0.025654                    
P 32  15113.299348  13657.199163 -17052.841826    129.442728                    
V 32   2683.926617  21637.358950  19509.619374      0.120393                    
EOF
